{"_default": { "34": {"norad_id": "32958", "name": "FENGYUN 3A", "tle1": "1 32958U 08026A   26199.27146497  .00000015  00000-0  27831-4 0  9991", "tle2": "2 32958  98.6886 139.5242 0009553  43.9751 316.2184 14.19576835939815", "object_type": "PAYLOAD", "criticality_score": 9.0, "last_updated": "2026-07-18T17:04:38.830881+00:00", "maneuver_count": 0, "owner": "N/A"}, "35": {"norad_id": "32953", "name": "YUBELEINY", "tle1": "1 32953U 08025A   26199.32395772  .00000003  00000-0 -48977-4 0  9995", "tle2": "2 32953  82.5068 336.0703 0018692 241.7403 118.1791 12.43180656823560", "object_type": "PAYLOAD", "criticality_score": 9.0, "last_updated": "2026-07-18T17:04:38.830881+00:00", "maneuver_count": 0, "owner": "N/A"}, "36": {"norad_id": "32783", "name": "CARTOSAT 2A", "tle1": "1 32783U 08021A   26199.29739859  .00000496  00000-0  73334-4 0  9996", "tle2": "2 32783  97.7611 246.9419 0012194  17.7826 342.3811 14.79279188983401", "object_type": "PAYLOAD", "criticality_score": 9.0, "last_updated": "2026-07-18T17:04:38.830881+00:00", "maneuver_count": 0, "owner": "N/A"}, "91": {"norad_id": "32785", "name": "CUTE-1.7+APD 2", "tle1": "1 32785U 08021C   26199.20357444  .00002036  00000-0  13048-3 0  9992", "tle2": "2 32785  97.8299 181.2770 0006839 287.0657  72.9822 15.09715838989876", "object_type": "PAYLOAD", "criticality_score": 9.0, "last_updated": "2026-07-18T17:04:38.830881+00:00", "maneuver_count": 0, "owner": "N/A"}, "92": {"norad_id": "28895", "name": "XI-V", "tle1": "1 28895U 05043F   26197.95849456  .00000631  00000-0  10709-3 0  9999", "tle2": "2 28895  98.3017 354.2118 0015312 110.0551 250.2305 14.72704810106133", "object_type": "PAYLOAD", "criticality_score": 9.0, "last_updated": "2026-07-18T17:04:38.830881+00:00", "maneuver_count": 0, "owner": "N/A"}, "93": {"norad_id": "28654", "name": "NOAA 18", "tle1": "1 28654U 05018A   26199.26274907  .00000013  00000-0  29963-4 0  9990", "tle2": "2 28654  98.8107 278.4880 0015211  65.0578 295.2173 14.13734350 90704", "object_type": "PAYLOAD", "criticality_score": 9.0, "last_updated": "2026-07-18T17:04:38.830881+00:00", "maneuver_count": 0, "owner": "N/A"}, "124": {"norad_id": "28650", "name": "HAMSAT", "tle1": "1 28650U 05017B   26199.07199680  .00002377  00000-0  15032-3 0  9994", "tle2": "2 28650  97.9900 223.4562 0017423 293.5857  66.3541 15.09974056151421", "object_type": "PAYLOAD", "criticality_score": 9.0, "last_updated": "2026-07-18T17:04:38.830881+00:00", "maneuver_count": 0, "owner": "N/A"}, "125": {"norad_id": "28628", "name": "INMARSAT 4-F1", "tle1": "1 28628U 05009A   26198.87347625  .00000022  00000-0  00000-0 0  9992", "tle2": "2 28628   5.2093  42.7939 0002641  72.5469 312.8867  1.00271594 77982", "object_type": "PAYLOAD", "criticality_score": 9.0, "last_updated": "2026-07-18T17:04:38.830881+00:00", "maneuver_count": 0, "owner": "N/A"}, "144": {"norad_id": "31130", "name": "CAPE 1", "tle1": "1 31130U 07012P   26198.90661182  .00000659  00000-0  12724-3 0  9996", "tle2": "2 31130  98.4481 174.2285 0082852 336.2854  23.4538 14.64957844 22853", "object_type": "PAYLOAD", "criticality_score": 9.0, "last_updated": "2026-07-18T17:04:38.830881+00:00", "maneuver_count": 0, "owner": "N/A"}, "145": {"norad_id": "29499", "name": "METOP-A", "tle1": "1 29499U 06044A   26199.23555353  .00000446  00000-0  58696-4 0  9997", "tle2": "2 29499  98.3352 306.9158 0172937 330.7511  57.7628 14.76050613 30030", "object_type": "PAYLOAD", "criticality_score": 9.0, "last_updated": "2026-07-18T17:04:38.830881+00:00", "maneuver_count": 0, "owner": "N/A"}, "149": {"norad_id": "32791", "name": "SEEDS", "tle1": "1 32791U 08021J   26199.26543741  .00009917  00000-0  30654-3 0  9999", "tle2": "2 32791  97.7531 198.6727 0003420 150.0473 210.0965 15.33729458992050", "object_type": "PAYLOAD", "criticality_score": 9.0, "last_updated": "2026-07-18T17:04:38.830881+00:00", "maneuver_count": 0, "owner": "N/A"}, "208": {"norad_id": "33320", "name": "HJ-1A", "tle1": "1 33320U 08041A   26199.24965583  .00001000  00000-0  12580-3 0  9993", "tle2": "2 33320  97.6700 183.8909 0020131  40.2768 319.9933 14.84053837963013", "object_type": "PAYLOAD", "criticality_score": 9.0, "last_updated": "2026-07-18T17:04:38.830881+00:00", "maneuver_count": 0, "owner": "N/A"}, "209": {"norad_id": "33321", "name": "HJ-1B", "tle1": "1 33321U 08041B   26199.30046289  .00000191  00000-0  29306-4 0  9999", "tle2": "2 33321  97.6536 187.0169 0037970  81.4336 279.1178 14.83367531963029", "object_type": "PAYLOAD", "criticality_score": 9.0, "last_updated": "2026-07-18T17:04:38.830881+00:00", "maneuver_count": 0, "owner": "N/A"}, "261": {"norad_id": "31113", "name": "HAIYANG 1B", "tle1": "1 31113U 07010A   26198.90961432  .00000033  00000-0  28131-4 0  9992", "tle2": "2 31113  98.3516 179.5662 0014724 108.3115 251.9672 14.31033731  5032", "object_type": "PAYLOAD", "criticality_score": 9.0, "last_updated": "2026-07-18T17:04:38.830881+00:00", "maneuver_count": 0, "owner": "N/A"}, "284": {"norad_id": "32062", "name": "CBERS 2B", "tle1": "1 32062U 07042A   26199.29013478  .00000078  00000-0  37253-4 0  9996", "tle2": "2 32062  98.3930 143.3994 0029797 240.1389 286.5866 14.41489569989166", "object_type": "PAYLOAD", "criticality_score": 9.0, "last_updated": "2026-07-18T17:04:38.830881+00:00", "maneuver_count": 0, "owner": "N/A"}, "317": {"norad_id": "28371", "name": "SAUDISAT 2", "tle1": "1 28371U 04025F   26199.28244082  .00000088  00000-0  30716-4 0  9996", "tle2": "2 28371  98.5522 200.0700 0024255 198.5050 161.5267 14.56699177170279", "object_type": "PAYLOAD", "criticality_score": 9.0, "last_updated": "2026-07-18T17:04:38.830881+00:00", "maneuver_count": 0, "owner": "N/A"}, "344": {"norad_id": "28521", "name": "COSMOS 2414", "tle1": "1 28521U 05002A   26199.03124129  .00000039  00000-0  19682-4 0  9996", "tle2": "2 28521  82.9490  20.3090 0038867 240.4400 119.2887 13.87928568 88090", "object_type": "PAYLOAD", "criticality_score": 9.0, "last_updated": "2026-07-18T17:04:38.830881+00:00", "maneuver_count": 0, "owner": "N/A"}, "345": {"norad_id": "28380", "name": "COSMOS 2407", "tle1": "1 28380U 04028A   26199.11930910  .00000031  00000-0  16051-4 0  9997", "tle2": "2 28380  82.9585  51.9204 0039561 163.9105 313.6350 13.76336707104133", "object_type": "PAYLOAD", "criticality_score": 9.0, "last_updated": "2026-07-18T17:04:38.830881+00:00", "maneuver_count": 0, "owner": "N/A"}, "367": {"norad_id": "29107", "name": "CLOUDSAT", "tle1": "1 29107U 06016A   26199.24949514  .00000402  00000-0  52352-4 0  9994", "tle2": "2 29107  98.3914 238.2603 0004310 220.0150 140.0747 14.86448395 79121", "object_type": "PAYLOAD", "criticality_score": 9.0, "last_updated": "2026-07-18T17:04:38.830881+00:00", "maneuver_count": 0, "owner": "N/A"}, "433": {"norad_id": "33408", "name": "SHIJIAN 6 03A (SJ-6 03A)", "tle1": "1 33408U 08053A   26199.24205168  .00003493  00000-0  17810-3 0  9998", "tle2": "2 33408  97.8389 233.6462 0009606 263.6518  96.3620 15.17434268967674", "object_type": "PAYLOAD", "criticality_score": 9.0, "last_updated": "2026-07-18T17:04:38.830881+00:00", "maneuver_count": 0, "owner": "N/A"}, "462": {"norad_id": "28051", "name": "IRS P6", "tle1": "1 28051U 03046A   26199.30006747  .00000162  00000-0  68368-4 0  9997", "tle2": "2 28051  98.1886 234.2891 0062807 248.5120 167.5556 14.36171847184990", "object_type": "PAYLOAD", "criticality_score": 9.0, "last_updated": "2026-07-18T17:04:38.830881+00:00", "maneuver_count": 0, "owner": "N/A"}, "509": {"norad_id": "32376", "name": "SKYMED 2", "tle1": "1 32376U 07059A   26199.28340719  .00000154  00000-0  25906-4 0  9999", "tle2": "2 32376  97.8896  22.4317 0001450  93.9204 266.2175 14.82151850  6613", "object_type": "PAYLOAD", "criticality_score": 9.0, "last_updated": "2026-07-18T17:04:38.830881+00:00", "maneuver_count": 0, "owner": "N/A"}, "529": {"norad_id": "29479", "name": "HINODE (SOLAR B)", "tle1": "1 29479U 06041A   26199.04872166  .00000265  00000-0  53891-4 0  9996", "tle2": "2 29479  98.0548 214.7464 0017254 185.2759 174.8267 14.68660184 59408", "object_type": "PAYLOAD", "criticality_score": 9.0, "last_updated": "2026-07-18T17:04:38.830881+00:00", "maneuver_count": 0, "owner": "N/A"}, "536": {"norad_id": "33409", "name": "SHIJIAN 6 03B (SJ-6 03B)", "tle1": "1 33409U 08053B   26199.29548288 -.00000200  00000-0 -96304-5 0  9999", "tle2": "2 33409  97.8560 219.7034 0017785 299.2706  60.6741 15.04379181967426", "object_type": "PAYLOAD", "criticality_score": 9.0, "last_updated": "2026-07-18T17:04:38.830881+00:00", "maneuver_count": 0, "owner": "N/A"}, "538": {"norad_id": "29506", "name": "SHIJIAN 6 02B (SJ-6 02B)", "tle1": "1 29506U 06046B   26199.26979566  .00000291  00000-0  27240-4 0  9996", "tle2": "2 29506  97.7138 228.1358 0013018 325.3898  34.6477 15.01440336 75403", "object_type": "PAYLOAD", "criticality_score": 9.0, "last_updated": "2026-07-18T17:04:38.830881+00:00", "maneuver_count": 0, "owner": "N/A"}, "650": {"norad_id": "29108", "name": "CALIPSO", "tle1": "1 29108U 06016B   26199.21290088  .00000493  00000-0  92218-4 0  9992", "tle2": "2 29108  98.4471 215.9349 0001457 110.4518 249.6843 14.69403866 77619", "object_type": "PAYLOAD", "criticality_score": 9.0, "last_updated": "2026-07-18T17:04:38.830881+00:00", "maneuver_count": 0, "owner": "N/A"}, "653": {"norad_id": "29709", "name": "LAPAN-TUBSAT", "tle1": "1 29709U 07001A   26199.29686571  .00000623  00000-0  77853-4 0  9991", "tle2": "2 29709  98.1351 199.2246 0013632  84.7662 275.5108 14.85979663 55777", "object_type": "PAYLOAD", "criticality_score": 9.0, "last_updated": "2026-07-18T17:04:38.830881+00:00", "maneuver_count": 0, "owner": "N/A"}, "657": {"norad_id": "29522", "name": "DMSP 5D-3 F17 (USA 191)", "tle1": "1 29522U 06050A   26199.28261782 -.00000036  00000-0  39819-5 0  9999", "tle2": "2 29522  98.7388 205.2177 0009548 333.7261  26.3428 14.14996190 16826", "object_type": "PAYLOAD", "criticality_score": 9.0, "last_updated": "2026-07-18T17:04:38.830881+00:00", "maneuver_count": 0, "owner": "N/A"}, "659": {"norad_id": "31115", "name": "BEIDOU 2", "tle1": "1 31115U 07011A   26196.57118350  .00000045  00000-0  00000+0 0  9992", "tle2": "2 31115  50.9235 218.3344 0002048 327.9250  32.1102  1.77349362 76659", "object_type": "PAYLOAD", "criticality_score": 9.0, "last_updated": "2026-07-18T17:04:38.830881+00:00", "maneuver_count": 0, "owner": "N/A"}, "663": {"norad_id": "28737", "name": "SJ-7", "tle1": "1 28737U 05024A   26199.06109458  .00003772  00000-0  16834-3 0  9992", "tle2": "2 28737  97.7273 230.0029 0013619 285.6419  74.3313 15.21958416152725", "object_type": "PAYLOAD", "criticality_score": 9.0, "last_updated": "2026-07-18T17:04:38.830881+00:00", "maneuver_count": 0, "owner": "N/A"}}}